{"type":"FeatureCollection","properties":{"ended_at":1789315043,"dist_km":0.086,"moving_s":30.0,"avg_kmh":10.35,"max_kmh":14.34,"has_cadence":true,"avg_cadence":36,"has_hr":true,"avg_hr":109},"features":[{"type":"Feature","geometry":{"type":"LineString","coordinates":[[107.6098099,-6.9147016,714.97],[107.6098222,-6.9147061,715.34],[107.6098351,-6.9147122,714.70],[107.6098480,-6.9147168,713.98],[107.6098578,-6.9147202,713.27],[107.6098675,-6.9147243,713.23],[107.6098791,-6.9147274,713.74],[107.6098930,-6.9147344,714.02],[107.6099070,-6.9147448,714.80],[107.6099192,-6.9147525,715.13],[107.6099292,-6.9147583,714.52],[107.6099396,-6.9147670,715.19],[107.6099488,-6.9147769,715.38],[107.6099564,-6.9147839,715.79],[107.6099668,-6.9147927,715.12],[107.6099762,-6.9148017,715.24],[107.6099834,-6.9148098,715.30],[107.6099893,-6.9148179,715.63],[107.6099956,-6.9148259,716.32],[107.6100020,-6.9148353,716.31],[107.6100094,-6.9148444,716.23],[107.6100156,-6.9148560,715.83],[107.6100205,-6.9148659,715.98],[107.6100253,-6.9148746,715.90],[107.6100289,-6.9148840,716.06],[107.6100330,-6.9148931,715.51],[107.6100359,-6.9149026,714.90],[107.6100393,-6.9149142,715.39],[107.6100436,-6.9149233,715.65],[107.6100503,-6.9149326,716.30],[107.6100590,-6.9149409,716.74],[107.6100717,-6.9149492,717.28],[107.6100821,-6.9149573,718.03],[107.6100918,-6.9149660,717.77],[107.6101002,-6.9149727,718.42],[107.6101109,-6.9149820,718.04],[107.6101235,-6.9149891,717.46],[107.6101372,-6.9149969,717.92],[107.6101494,-6.9150045,717.96],[107.6101630,-6.9150127,718.03],[107.6101767,-6.9150178,717.33],[107.6101871,-6.9150222,717.24],[107.6101973,-6.9150276,717.68],[107.6102109,-6.9150321,718.04],[107.6102210,-6.9150376,718.46],[107.6102305,-6.9150423,717.82],[107.6102397,-6.9150477,717.91],[107.6102524,-6.9150544,717.42],[107.6102688,-6.9150619,717.01],[107.6102830,-6.9150692,716.59],[107.6102947,-6.9150771,716.98],[107.6103055,-6.9150858,717.25],[107.6103191,-6.9150947,717.37],[107.6103327,-6.9151062,717.99],[107.6103443,-6.9151170,718.03],[107.6103537,-6.9151296,718.63],[107.6103632,-6.9151394,719.16],[107.6103712,-6.9151510,719.53],[107.6103804,-6.9151612,718.83],[107.6103875,-6.9151714,718.55]]},"properties":{"speed_kmh":[8.000,10.395,11.351,10.924,8.263,8.376,9.590,12.434,13.871,11.541,9.181,10.837,10.776,8.256,10.885,10.379,8.670,8.000,8.132,9.132,9.327,10.518,8.823,8.000,8.000,8.000,8.000,9.686,8.000,9.169,9.657,12.105,10.515,10.408,8.549,11.324,11.490,12.571,11.462,12.691,11.634,9.022,9.154,11.380,9.199,8.418,8.549,11.432,14.336,12.769,11.254,11.031,12.972,14.184,12.712,12.523,10.951,11.285,10.937,9.959],"t_s":[0.50,1.00,1.50,2.00,2.50,3.00,3.50,4.00,4.50,5.00,5.50,6.00,6.50,7.00,7.50,8.00,8.50,9.00,9.50,10.00,10.50,11.00,11.50,12.00,12.50,13.00,13.50,14.00,14.50,15.00,15.50,16.00,16.50,17.00,17.50,18.00,18.50,19.00,19.50,20.00,20.50,21.00,21.50,22.00,22.50,23.00,23.50,24.00,24.50,25.00,25.50,26.00,26.50,27.00,27.50,28.00,28.50,29.00,29.50,30.00]}}]}